#aV2007  3 17  0  0   .00000000      96 DD+AD WGS84 FIT  NGA
## 1418 518400.00000000   900.00000000 54176  .0000000000000
+   30     1  2  3  4  5  6  7  8  9 10 11 12 13 14 16 17 18
+         19 20 21 22 23 24 25 26 27 28 29 30 31  0  0  0  0
+          0  0  0  0  0  0  0  0  0  0  0  0  0  0  0  0  0
+          0  0  0  0  0  0  0  0  0  0  0  0  0  0  0  0  0
+          0  0  0  0  0  0  0  0  0  0  0  0  0  0  0  0  0
++         0  0  0  0  0  0  0  0  0  0  0  0  0  0  0  0  0
++         0  0  0  0  0  0  0  0  0  0  0  0  0  0  0  0  0
++         0  0  0  0  0  0  0  0  0  0  0  0  0  0  0  0  0
++         0  0  0  0  0  0  0  0  0  0  0  0  0  0  0  0  0
++         0  0  0  0  0  0  0  0  0  0  0  0  0  0  0  0  0
%c cc cc ccc ccc cccc cccc cccc cccc ccccc ccccc ccccc ccccc
%c cc cc ccc ccc cccc cccc cccc cccc ccccc ccccc ccccc ccccc
%f  0.0000000  0.000000000  0.00000000000  0.000000000000000
%f  0.0000000  0.000000000  0.00000000000  0.000000000000000
%i    0    0    0    0      0      0      0      0         0
%i    0    0    0    0      0      0      0      0         0
/*      NGA, ST. LOUIS,MO.                                  
/*   EPHEMERIS COMPUTED FROM  3 DAYS OF DATA                
/* CCCCCCCCCCCCCCCCCCCCCCCCCCCCCCCCCCCCCCCCCCCCCCCCCCCCCCCCC
/* CCCCCCCCCCCCCCCCCCCCCCCCCCCCCCCCCCCCCCCCCCCCCCCCCCCCCCCCC
*  2007  3 17 22 15   .00000000                                                 
P  1 -21235.826851 -13566.283912  -8284.548402    114.355397                    
V  1  -6371.553422  -8842.452748  30007.819267       .023514                    
P  2  14930.216479   4815.617726 -21674.643647     91.185643                    
V  2  -5711.743855  26406.602915   1688.465803       .032383                    
P  3 -23367.290129  -8426.365118   9644.007730     29.239582                    
V  3  -8050.069825 -10094.962427 -27408.094452       .055785                    
P  4   8359.394617  18401.392786 -17112.442637      8.150223                    
V  4  -7102.556136  20710.593149  19232.681072       .012013                    
P  5  20071.052960 -15125.072648  -8588.831994     42.659843                    
V  5  11108.195425  -1064.529206  28753.681913      -.008839                    
P  6   4177.415006 -16236.034093 -20400.418838     92.912384                    
V  6  20868.588814  16280.060619  -8653.529988       .218990                    
P  7   -826.580246 -18409.574211 -18760.500272    380.434808                    
V  7  20339.723234  14042.990632 -14493.701348      -.139060                    
P  8    301.090357  24426.142420   9753.616828   -100.349594                    
V  8  -5618.436581  11616.563092 -29001.465776      -.013148                    
P  9  14109.338329 -14757.273927  16278.528467     62.038359                    
V  9  -1803.846377  21887.897824  20897.319498       .016226                    
P 10  24817.186809    -83.609750 -10012.535205     98.971577                    
V 10 -11386.298029   5376.934314 -28265.842475       .005611                    
P 11 -13251.285589  16844.739429  15406.985863     10.511876                    
V 11  -2431.033421 -20250.905100  20202.870087       .012205                    
P 12  22579.552340 -12155.325592  -6712.726483    -44.766649                    
V 12   9096.027812    -53.525132  30247.151591       .010864                    
P 13   -627.785087  17566.165740 -20023.132157    154.071169                    
V 13 -18490.723214 -17010.798605 -14366.124156       .038311                    
P 14 -15266.704100 -20689.381845   6883.312445     12.076492                    
V 14   7458.931214   4615.140348  30717.898432       .014834                    
P 16 -21602.476963  -4245.581268 -14869.873257    131.751340                    
V 16  17592.719484  -7362.963949 -23186.405702       .034103                    
P 17  14432.550038  20897.263402   7992.219283     74.946567                    
V 17  -9158.095698  -4980.485457  29454.839701      -.013280                    
P 18   5007.049600 -16341.509572  20382.863403   -252.912226                    
V 18  25097.948792  -5614.586933 -11057.792921       .003844                    
P 19 -19300.508296  -1436.085945  18332.748224     15.628196                    
V 19 -14942.065139 -17614.821799 -17100.840282       .038898                    
P 20 -21472.164948  13281.021581  -8270.990553    -22.955732                    
V 20 -10755.095038    566.667248  29229.729404      -.002626                    
P 21   4489.804543 -25732.468014   2706.745643     73.646287                    
V 21   4657.098298  -2308.473756 -31392.939593       .007896                    
P 22  -7813.365837 -13767.518919  21483.134288    172.499140                    
V 22  25938.513447  -7323.777299   4753.333027       .016222                    
P 23 -11180.594429  10132.582582 -21945.622647    154.937355                    
V 23 -20389.161433 -18649.025386   1595.003382       .019830                    
P 24  12566.856118 -21662.040098  -9072.467065     85.687510                    
V 24   -678.450247  11976.989400 -28579.304060       .028806                    
P 25 -15317.775038   5043.102458 -20759.040036    292.608919                    
V 25   2553.282844 -27106.206814  -8153.533968      -.224664                    
P 26  20027.885066   4179.547231  16827.492229    -94.104163                    
V 26  15014.395748  15972.169660 -20747.690245      -.192497                    
P 27  -3319.330571  26206.841751   1062.369866     99.863545                    
V 27  -3030.819303    123.913229 -31926.500294       .021600                    
P 28   3820.032445  14873.301049  21993.109150      5.161000                    
V 28 -26112.452603   7439.554138   -848.992042      -.007554                    
P 29  21629.479971   6958.141123  14267.195617       .431171                    
V 29  12209.458833  12665.512165 -24718.944460       .005364                    
P 30  13279.387379 -16900.801709 -15833.613245     28.332105                    
V 30  19241.886451  -4538.243891  21506.514185       .011514                    
P 31  -9285.968696 -16873.195508 -18059.668911     15.965234                    
V 31   6502.500208 -22503.899558  17547.706888       .020863                    
EOF
